{
  "norad_id": 59783,
  "name": "STARLINK-31868",
  "history": [
    {
      "epoch": "2026-03-28T17:30:27.130752",
      "apogee_km": 483.86482226627413,
      "perigee_km": 482.25792960663057,
      "latitude_deg": 17.324202934759896,
      "longitude_deg": -131.66985471989028,
      "semi_major_axis_km": 6861.198375936452,
      "eccentricity": 0.0001171,
      "inclination_deg": 43.0027,
      "raan_deg": 98.146,
      "arg_perigee_deg": 257.4275,
      "mean_anomaly_deg": 102.6446,
      "mean_motion_rev_day": 15.27575899
    }
  ]
}